[{"OBJECT_NAME":"STARLINK-6326","OBJECT_ID":"2023-078W","EPOCH":"2026-03-09T22:36:03.602304","MEAN_MOTION":14.98329674,"ECCENTRICITY":0.0001755,"INCLINATION":70.0003,"RA_OF_ASC_NODE":323.7288,"ARG_OF_PERICENTER":274.6103,"MEAN_ANOMALY":85.4855,"EPHEMERIS_TYPE":0,"CLASSIFICATION_TYPE":"U","NORAD_CAT_ID":56787,"ELEMENT_SET_NO":999,"REV_AT_EPOCH":15321,"BSTAR":-3.0224546e-5,"MEAN_MOTION_DOT":-4.53e-6,"MEAN_MOTION_DDOT":0},{"OBJECT_NAME":"CZ-2D DEB","OBJECT_ID":"2017-060D","EPOCH":"2026-03-09T09:20:51.218016","MEAN_MOTION":14.94784327,"ECCENTRICITY":0.00290231,"INCLINATION":98.2151,"RA_OF_ASC_NODE":220.4386,"ARG_OF_PERICENTER":85.7344,"MEAN_ANOMALY":274.7191,"EPHEMERIS_TYPE":0,"CLASSIFICATION_TYPE":"U","NORAD_CAT_ID":44611,"ELEMENT_SET_NO":999,"REV_AT_EPOCH":45223,"BSTAR":0.00060475076,"MEAN_MOTION_DOT":6.57e-5,"MEAN_MOTION_DDOT":0}]
